NORAD_CAT_ID,OBJECT_NAME,OBJECT_TYPE,EPOCH,MEAN_MOTION,ECCENTRICITY,INCLINATION,RA_OF_ASC_NODE,ARG_OF_PERICENTER,MEAN_ANOMALY,BSTAR,MEAN_MOTION_DOT,MEAN_MOTION_DDOT,TLE_LINE0,TLE_LINE1,TLE_LINE2,SEMIMAJOR_AXIS,PERIOD,APOGEE,PERIGEE,DECAYED
52878.0,STARLINK-4171,PAYLOAD,2024-05-08 04:48:01,15.08851494,0.0001537,53.214,144.0634,93.6245,266.4923,4.8464e-05,4.84e-06,0.0,0 STARLINK-4171,1 52878U 22062BA  24129.20002202  .00000484  00000-0  48464-4 0  9994,2 52878  53.2140 144.0634 0001537  93.6245 266.4923 15.08851494105333,6917.845,95.437,540.774,538.647,0.0
52878.0,STARLINK-4171,PAYLOAD,2024-05-08 11:09:34,15.08856572,0.0001401,53.2143,142.8746,91.9703,268.145,9.1168e-07,-2.73e-06,0.0,0 STARLINK-4171,1 52878U 22062BA  24129.46497809 -.00000273  00000-0  91168-6 0  9991,2 52878  53.2143 142.8746 0001401  91.9703 268.1450 15.08856572104881,6917.83,95.437,540.664,538.726,0.0
52878.0,STARLINK-4171,PAYLOAD,2024-05-08 17:31:06,15.08856235,0.0001335,53.2141,141.6847,92.6548,267.4597,0.00012774,1.747e-05,0.0,0 STARLINK-4171,1 52878U 22062BA  24129.72993648  .00001747  00000-0  12774-3 0  9991,2 52878  53.2141 141.6847 0001335  92.6548 267.4597 15.08856235104924,6917.831,95.437,540.619,538.772,0.0
52878.0,STARLINK-4171,PAYLOAD,2024-05-09 04:38:49,15.08839357,0.0001314,53.2144,139.6032,87.798,272.3162,-0.00010983,-2.035e-05,0.0,0 STARLINK-4171,1 52878U 22062BA  24130.19362347 -.00002035  00000-0 -10983-3 0  9993,2 52878  53.2144 139.6032 0001314  87.7980 272.3162 15.08839357105483,6917.882,95.438,540.656,538.838,0.0
52878.0,STARLINK-4171,PAYLOAD,2024-05-09 07:49:35,15.08840011,0.0001383,53.2148,139.009,89.8896,270.2255,-9.5777e-05,-1.812e-05,0.0,0 STARLINK-4171,1 52878U 22062BA  24130.32610289 -.00001812  00000-0 -95777-4 0  9996,2 52878  53.2148 139.0090 0001383  89.8896 270.2255 15.08840011105018,6917.88,95.438,540.702,538.789,0.0
52878.0,STARLINK-4171,PAYLOAD,2024-05-10 10:51:08,15.08846402,0.0001294,53.2145,133.9525,87.8544,272.2596,0.00010308,1.353e-05,0.0,0 STARLINK-4171,1 52878U 22062BA  24131.45218090  .00001353  00000-0  10308-3 0  9999,2 52878  53.2145 133.9525 0001294  87.8544 272.2596 15.08846402105672,6917.861,95.437,540.621,538.831,0.0
52878.0,STARLINK-4171,PAYLOAD,2024-05-10 17:12:40,15.08847188,0.0001308,53.2149,132.763,88.1234,271.9908,0.0001553,2.185e-05,0.0,0 STARLINK-4171,1 52878U 22062BA  24131.71714084  .00002185  00000-0  15530-3 0  9998,2 52878  53.2149 132.7630 0001308  88.1234 271.9908 15.08847188105222,6917.858,95.437,540.628,538.819,0.0
52878.0,STARLINK-4171,PAYLOAD,2024-05-11 04:20:23,15.08834233,0.0001403,53.2155,130.6821,87.0753,273.04,9.5418e-05,1.231e-05,0.0,0 STARLINK-4171,1 52878U 22062BA  24132.18082856  .00001231  00000-0  95418-4 0  9990,2 52878  53.2155 130.6821 0001403  87.0753 273.0400 15.08834233105786,6917.898,95.438,540.734,538.792,0.0
52878.0,STARLINK-4171,PAYLOAD,2024-05-11 09:06:32,15.08866702,0.0001574,53.2157,129.7888,87.2392,272.8781,0.00062556,9.689e-05,0.0,0 STARLINK-4171,1 52878U 22062BA  24132.37954020  .00009689  00000-0  62556-3 0  9993,2 52878  53.2157 129.7888 0001574  87.2392 272.8781 15.08866702105819,6917.799,95.436,540.753,538.575,0.0
52878.0,STARLINK-4171,PAYLOAD,2024-05-11 17:03:27,15.08873594,0.0001331,53.2148,128.3022,67.3789,292.7344,0.00076621,0.00011938,0.0,0 STARLINK-4171,1 52878U 22062BA  24132.71073142  .00011938  00000-0  76621-3 0  9996,2 52878  53.2148 128.3022 0001331  67.3789 292.7344 15.08873594105378,6917.778,95.435,540.563,538.722,0.0
52878.0,STARLINK-4171,PAYLOAD,2024-05-12 05:46:34,15.08818459,0.00015,53.2154,125.924,76.5358,283.5801,-0.00031635,-5.316e-05,0.0,0 STARLINK-4171,1 52878U 22062BA  24133.24067330 -.00005316  00000-0 -31635-3 0  9998,2 52878  53.2154 125.9240 0001500  76.5358 283.5801 15.08818459105940,6917.946,95.439,540.849,538.774,0.0
52878.0,STARLINK-4171,PAYLOAD,2024-05-12 08:57:20,15.08819486,0.0001586,53.2154,125.329,77.0525,283.0644,-0.00026948,-4.572e-05,0.0,0 STARLINK-4171,1 52878U 22062BA  24133.37315460 -.00004572  00000-0 -26948-3 0  9996,2 52878  53.2154 125.3290 0001586  77.0525 283.0644 15.08819486105474,6917.943,95.439,540.905,538.711,0.0
52878.0,STARLINK-4171,PAYLOAD,2024-05-12 16:54:16,15.0881972,0.0001627,53.2156,123.843,75.1883,284.929,-0.0001908,-3.322e-05,0.0,0 STARLINK-4171,1 52878U 22062BA  24133.70435884 -.00003322  00000-0 -19080-3 0  9997,2 52878  53.2156 123.8430 0001627  75.1883 284.9290 15.08819720105521,6917.942,95.439,540.933,538.682,0.0
52878.0,STARLINK-4171,PAYLOAD,2024-05-13 05:37:22,15.08822778,0.0001607,53.2158,121.4626,77.921,282.1962,2.1574e-05,5.5e-07,0.0,0 STARLINK-4171,1 52878U 22062BA  24134.23428533  .00000055  00000-0  21574-4 0  9999,2 52878  53.2158 121.4626 0001607  77.9210 282.1962 15.08822778106092,6917.933,95.439,540.91,538.686,0.0
52878.0,STARLINK-4171,PAYLOAD,2024-05-13 08:48:08,15.0882207,0.0001539,53.2153,120.8684,76.5282,283.5881,0.00015866,2.237e-05,0.0,0 STARLINK-4171,1 52878U 22062BA  24134.36676769  .00002237  00000-0  15866-3 0  9999,2 52878  53.2153 120.8684 0001539  76.5282 283.5881 15.08822070105620,6917.935,95.439,540.865,538.736,0.0
52878.0,STARLINK-4171,PAYLOAD,2024-05-13 23:06:37,15.0883497,0.000158,53.2155,118.192,73.1904,286.9261,0.00060329,9.325e-05,0.0,0 STARLINK-4171,1 52878U 22062BA  24134.96293275  .00009325  00000-0  60329-3 0  9991,2 52878  53.2155 118.1920 0001580  73.1904 286.9261 15.08834970105716,6917.896,95.438,540.854,538.668,0.0
52878.0,STARLINK-4171,PAYLOAD,2024-05-14 03:52:46,15.08843553,0.0001586,53.2154,117.3002,73.2044,286.9122,0.00073554,0.00011439,0.0,0 STARLINK-4171,1 52878U 22062BA  24135.16165166  .00011439  00000-0  73554-3 0  9994,2 52878  53.2154 117.3002 0001586  73.2044 286.9122 15.08843553106230,6917.87,95.437,540.832,538.637,0.0
52878.0,STARLINK-4171,PAYLOAD,2024-05-14 08:38:56,15.08849448,0.000159,53.2155,116.4082,72.8697,287.2469,0.00077619,0.0001209,0.0,0 STARLINK-4171,1 52878U 22062BA  24135.36037046  .00012090  00000-0  77619-3 0  9991,2 52878  53.2155 116.4082 0001590  72.8697 287.2469 15.08849448105778,6917.852,95.437,540.816,538.617,0.0
52878.0,STARLINK-4171,PAYLOAD,2024-05-15 05:18:55,15.08872257,0.0001586,53.2156,112.542,74.6571,285.4596,0.00079444,0.00012389,0.0,0 STARLINK-4171,1 52878U 22062BA  24136.22147750  .00012389  00000-0  79444-3 0  9990,2 52878  53.2156 112.5420 0001586  74.6571 285.4596 15.08872257106392,6917.782,95.436,540.744,538.55,0.0
52878.0,STARLINK-4171,PAYLOAD,2024-05-15 08:29:41,15.08881521,0.0001599,53.2157,111.947,76.0862,284.0308,0.0010965,0.00017226,0.0,0 STARLINK-4171,1 52878U 22062BA  24136.35395400  .00017226  00000-0  10965-2 0  9998,2 52878  53.2157 111.9470 0001599  76.0862 284.0308 15.08881521105922,6917.753,95.435,540.725,538.512,0.0
52878.0,STARLINK-4171,PAYLOAD,2024-05-15 22:48:09,15.08865338,0.0001291,53.2161,109.2711,78.2134,281.9003,0.00030007,4.494e-05,0.0,0 STARLINK-4171,1 52878U 22062BA  24136.95010713  .00004494  00000-0  30007-3 0  9998,2 52878  53.2161 109.2711 0001291  78.2134 281.9003 15.08865338106017,6917.803,95.436,540.561,538.775,0.0
52878.0,STARLINK-4171,PAYLOAD,2024-05-16 05:09:41,15.0885507,0.0001529,53.216,108.0815,85.0593,275.0574,-5.6262e-06,-3.78e-06,0.0,0 STARLINK-4171,1 52878U 22062BA  24137.21506569 -.00000378  00000-0 -56262-5 0  9999,2 52878  53.2160 108.0815 0001529  85.0593 275.0574 15.08855070106544,6917.834,95.437,540.757,538.642,0.0
52878.0,STARLINK-4171,PAYLOAD,2024-05-16 14:42:00,15.08867923,0.000154,53.2162,106.2969,87.6516,272.4652,0.00095509,0.00014957,0.0,0 STARLINK-4171,1 52878U 22062BA  24137.61250136  .00014957  00000-0  95509-3 0  9990,2 52878  53.2162 106.2969 0001540  87.6516 272.4652 15.08867923106113,6917.795,95.436,540.725,538.595,0.0
52878.0,STARLINK-4171,PAYLOAD,2024-05-17 05:00:28,15.08851837,0.0001409,53.2161,103.6226,100.4782,259.6369,0.00074311,0.00011562,0.0,0 STARLINK-4171,1 52878U 22062BA  24138.20866322  .00011562  00000-0  74311-3 0  9993,2 52878  53.2161 103.6226 0001409 100.4782 259.6369 15.08851837106694,6917.844,95.437,540.684,538.734,0.0
52878.0,STARLINK-4171,PAYLOAD,2024-05-18 03:15:52,15.08841467,0.0001011,53.2141,99.4595,97.7784,262.3323,0.00067836,0.00010525,0.0,0 STARLINK-4171,1 52878U 22062BA  24139.13602770  .00010525  00000-0  67836-3 0  9993,2 52878  53.2141  99.4595 0001011  97.7784 262.3323 15.08841467106837,6917.876,95.437,540.44,539.042,0.0
52878.0,STARLINK-4171,PAYLOAD,2024-05-18 14:23:34,15.08850952,0.0001411,53.2159,97.3762,72.2832,287.8314,0.00068483,0.00010631,0.0,0 STARLINK-4171,1 52878U 22062BA  24139.59970476  .00010631  00000-0  68483-3 0  9991,2 52878  53.2159  97.3762 0001411  72.2832 287.8314 15.08850952106410,6917.847,95.437,540.688,538.736,0.0
52878.0,STARLINK-4171,PAYLOAD,2024-05-19 04:42:03,15.08821467,0.0001248,53.2145,94.7007,75.9343,284.1788,0.00026058,3.86e-05,0.0,0 STARLINK-4171,1 52878U 22062BA  24140.19587693  .00003860  00000-0  26058-3 0  9992,2 52878  53.2145  94.7007 0001248  75.9343 284.1788 15.08821467106990,6917.937,95.439,540.665,538.939,0.0
52878.0,STARLINK-4171,PAYLOAD,2024-05-20 02:57:27,15.08852326,0.0001281,53.2147,90.5367,74.4299,285.6834,0.001194,0.00018772,0.0,0 STARLINK-4171,1 52878U 22062BA  24141.12324005  .00018772  00000-0  11940-2 0  9993,2 52878  53.2147  90.5367 0001281  74.4299 285.6834 15.08852326107139,6917.843,95.437,540.594,538.822,0.0
52878.0,STARLINK-4171,PAYLOAD,2024-05-20 20:26:42,15.08858169,0.0001351,53.215,87.2665,73.282,286.832,0.00083022,0.00012956,0.0,0 STARLINK-4171,1 52878U 22062BA  24141.85187572  .00012956  00000-0  83022-3 0  9998,2 52878  53.2150  87.2665 0001351  73.2820 286.8320 15.08858169107248,6917.825,95.436,540.624,538.755,0.0
52878.0,STARLINK-4171,PAYLOAD,2024-05-21 02:48:14,15.08839165,0.0001437,53.2156,86.0759,67.265,292.8494,3.6916e-05,3e-06,0.0,0 STARLINK-4171,1 52878U 22062BA  24142.11683678  .00000300  00000-0  36916-4 0  9997,2 52878  53.2156  86.0759 0001437  67.2650 292.8494 15.08839165107282,6917.883,95.438,540.742,538.754,0.0
